#dP2019 12 12  0  0  0.00000000      96 __u+U ITR00 FIT  IAC
## 2083 345600.00000000   900.00000000 58829 0.0000000000000
+  113   C01C02C03C04C05C06C07C08C09C10C11C12C13C14C16C19C20
+        C21C22C23C24C25C26C27C28C29C30C32C33C34C35C36C37E01
+        E02E03E04E05E07E08E09E11E12E13E14E15E18E19E21E24E25
+        E26E27E30E31E33E36G01G02G03G04G05G06G07G08G09G10G11
+        G12G13G14G15G16G17G18G19G20G21G22G23G24G25G26G27G28
+        G29G30G31G32J01J02J03R01R02R03R05R07R08R09R11R12R13
+        R14R15R16R17R18R19R20R21R22R23R26  0  0  0  0  0  0
++        13 13 13 13 12  8  8  9  8  8  8  8  9  8  8  8  8
++         8  8  7  7  7  8  8  7  8  7  8  8  8  8  8  8  4
++         4  4  4  4  4  4  4  4  4  5  4  5  4  4  5  4  4
++         4  5  5  4  4  4  3  3  3  4  3  3  3  3  3  3  3
++         3  3  3  3  3  3  4  3  3  3  3  3  3  3  3  3  3
++         3  3  3  3  9  8  8  6  5  6  5  5  5  5  5  5  6
++         5  5  6  5  5  6  6  5  5  6  8  0  0  0  0  0  0
%c M  cc GPS ccc cccc cccc cccc cccc ccccc ccccc ccccc ccccc
%c cc cc ccc ccc cccc cccc cccc cccc ccccc ccccc ccccc ccccc
%f  0.0000000  0.000000000  0.00000000000  0.000000000000000
%f  0.0000000  0.000000000  0.00000000000  0.000000000000000
%i    0    0    0    0      0      0      0      0         0
%i    0    0    0    0      0      0      0      0         0
/* INFORMATION & ANALYSIS CENTER (IAC)            RAPID DATA
/* S/V CLOCKS ARE ALIGNED TO GNSS TIME                      
/* G:C1WC2W R:C1PC2P E:C1XC5X C:C2IC6I J:C1CC2S             
/* PCV:IGS14_2082 OL/AL:FES2004  NONE     YN ORB:CoN CLK:CoN
*  2019 12 12 20  0  0.00000000
PC01 -32269.330753  27112.466685    509.690992    251.537200
PC02   4373.890412  41961.949073    423.665066    680.716874
PC03 -14839.630671  39452.114848    831.818963    187.912350
PC04 -39591.157119  14454.342246    445.474092   -429.131503
PC05  21847.115988  36069.188998    276.189458   -226.372616
PC06 -23957.634835  25089.299666 -23897.766456    288.117540
PC07 -14907.501733  37573.108277 -10935.349433    174.829778
PC08  -6309.508774  22730.638256  35099.274701    -53.988229
PC09  -7460.327709  25769.440623 -32370.601742    182.977982
PC10  -3512.276840  41646.110627   3819.057171   -454.925877
PC11 -18536.659334 -12034.642114 -16935.266652    -56.526272
PC12   2036.302624 -15252.802162 -23239.688196    303.555728
PC13   8121.056108  31122.614888  27487.496465    152.681478
PC14  -8458.063368 -15365.424523  21737.302718    362.399934
PC16 -20956.140798  25662.446791 -26153.115148   -933.730228
PC19  14750.519346   6335.311039 -22810.534905    269.030320
PC20   1287.840382  21541.450939 -17671.401809   -408.424515
PC21  13425.269608 -24405.125287   1858.411792    112.137118
PC22  19929.599574 -12812.701551 -14768.905032   -504.966217
PC23 -16354.417173   2962.094645 -22410.049944   -869.639962
PC24  -9971.488099 -25686.692087   4318.839672   -883.932920
PC25 -19191.296500 -15398.841810 -13148.299534   -444.953392
PC26   3509.411558 -20584.193834  18494.282456    494.149358
PC27 -12630.664070  13740.166844  20742.191490    241.400956
PC28 -26508.203261   4024.615711   7725.058232    232.437326
PC29  25172.255654   7070.557378   9755.091900    158.794997
PC30   8913.466467  15146.878953  21677.083248    239.062620
PC32 -13255.674778  24485.039979  -1833.431435   -856.541048
PC33 -14757.366999  -6383.581442  22805.237029   -662.965369
PC34  -9302.522259 -15139.581161 -21520.355954   -305.827773
PC35  26393.603972  -4855.668954  -7592.314148   -651.254670
PC36  18810.125846  16000.919854  13021.458924   -876.028100
PC37  -4387.959549  20144.517864 -18793.622700   -889.926491
PE01  -6419.266813  26071.863261 -12460.010040   -751.023169
PE02   6384.706935 -26097.195697  12412.137627     98.268753
PE03  16440.247523 -21474.308371  12039.728796   -243.144002
PE04   2748.047622  18109.468699 -23254.913514   -423.930145
PE05  26177.911843 -12280.036551  -6344.254609   -423.373163
PE07 -20555.921134  -4034.165331  20907.191433   -311.823258
PE08  -2968.853524 -17891.051997  23390.209208   6250.141602
PE09  20574.081350   3714.497970 -20963.041759   6223.444380
PE11  26659.066972  12849.152688    321.964839    334.457802
PE12  13218.382830  19427.041545  18003.285408   6054.734503
PE13 -26664.434595 -12838.505908   -511.057951    396.308940
PE14 -24694.796590  -7633.708243 -15942.243464   -828.134674
PE15 -13600.352304 -19295.967029 -17840.765765    884.604251
PE18  26690.834233  -4481.752297   1577.471910   -923.890517
PE19 -18101.230169  21044.780874 -10285.765351     -2.465598
PE21 -15220.916566   8692.930933 -23850.206276   -570.985637
PE24  15143.948938  13988.967560  21243.023099   5719.456193
PE25  15252.133478  -8575.243276  23884.418602   -498.258665
PE26 -24031.586375   1276.693536  17237.197217   3771.301038
PE27 -15172.838289 -13908.950035 -21261.256267    326.432576
PE30  -6041.344450 -28311.602806  -6142.451443   4310.933489
PE31   6232.019564  28263.711970   6221.274578   -470.892697
PE33  -7467.674368  14448.783872  24742.750867   -471.515235
PE36  24111.034176  -1142.673845 -17124.581458    625.138533
PG01 -21677.539032 -13548.399683   7593.046617   -227.562275
PG02  10694.386402  20839.471013  13256.087571   -365.058674
PG03 -14344.873068  -4917.844424  21748.762071    -51.807299
PG04 -23498.035688  -2460.980527  12085.812688    -19.851449
PG05   4424.263871  22989.104733 -12492.062555     -4.614137
PG06  -1932.794980  16976.397992  20377.041289   -151.617908
PG07 -18363.014301   1056.400591 -19045.442536   -168.570541
PG08 -16786.430902  -8251.858892 -18907.924963    -16.530493
PG09 -25639.660459   6596.006378   2126.685214   -106.503838
PG10  11491.830393 -22025.311687  -9001.003451   -169.744935
PG11 -25055.875224  -8279.387685   -780.441351   -421.290233
PG12  11611.567666  10603.704840  21216.968890    173.900176
PG13   7944.574821  13662.620888 -21479.972781    -27.071204
PG14   6495.491441 -16046.690982  20418.997820    -45.216415
PG15  18421.551510   7132.245167 -18223.450222   -266.156089
PG16   -720.115025 -23553.539552 -11991.592594   -102.364305
PG17 -17138.347182  14279.853062  14787.088497    179.560917
PG18 -19801.563950 -17764.095978  -1162.296910    106.253933
PG19 -10714.036873  14934.307722  18886.482446   -227.226457
PG20  14405.712096 -13960.707814 -17407.648469    527.644637
PG21  15821.671478  -5274.848653 -19833.268428    -71.912045
PG22 -12709.939487 -13226.220114  19458.647528   -777.182550
PG23 -24413.966758   -607.074890  11246.976647   -149.964074
PG24  22299.878993  13820.373265   5052.647508     -6.120916
PG25  15719.193142  -5281.606950  20467.285249    -17.362419
PG26   3892.115186 -26092.923562  -1881.318620    104.250750
PG27  -4889.726988 -14069.041992 -22107.608209   -148.393777
PG28 -12408.783218  22269.339468  -7077.548446    750.931356
PG29  26098.820243  -4104.847424   2818.346974     20.258345
PG30 -10196.526375  11919.219243 -21397.458761   -104.451443
PG31    491.951371 -18313.749163  19036.301181     -9.358997
PG32  16094.525705 -15546.042730  14265.696243    153.474972
PJ01 -32961.431154  25618.559371  10819.926637   -328.107357
PJ02 -18749.931130  25763.886250 -23106.369017     -0.302208
PJ03 -29789.331769  26303.485664  19365.221757     -9.199200
PR01  11207.104440 -20391.752932  10460.078121     54.024552
PR02  -5198.020944 -10291.116244  22778.715978    402.114240
PR03 -16595.049372   4888.197027  18797.599111      6.374692
PR05  -9825.390532  19732.290196 -12854.564926     41.099771
PR07  16766.743210  -5322.995133 -18426.185045    -30.638156
PR08  18366.686475 -17190.644852  -4131.333507     13.834178
PR09  11889.549742  19755.293192  10854.821420    105.921506
PR11   6887.161694 -12258.066824  21310.148731     16.876240
PR12  -2553.557851 -23355.591251   9931.131985     87.343977
PR13 -11143.051710 -21474.106837  -8098.078899    -32.167742
PR14 -12745.024381  -7095.110887 -20914.243335     45.992569
PR15  -7180.426762  11333.565341 -21673.293969    105.199114
PR16   3149.317622  23526.269344  -9527.154926     -0.419987
PR17 -24951.923232  -5076.234107   1093.594811    283.307589
PR18 -19072.383068   3383.003630  16645.699767     17.745485
PR19  -3395.892455   9874.090068  23278.527163    -68.592906
PR20  16430.604038  11416.854248  15811.005519   -398.670776
PR21  25005.495063   4759.546450  -1891.736512    -91.220557
PR22  16692.839331  -4723.923487 -18638.592249     -5.219110
PR23  -3488.651443 -11237.476334 -22632.758258    272.776317
PR26  13363.360442  11557.529334  18427.678418     14.586705
EOF
